OBJECT_NAME,OBJECT_ID,EPOCH,MEAN_MOTION,ECCENTRICITY,INCLINATION,RA_OF_ASC_NODE,ARG_OF_PERICENTER,MEAN_ANOMALY,EPHEMERIS_TYPE,CLASSIFICATION_TYPE,NORAD_CAT_ID,ELEMENT_SET_NO,REV_AT_EPOCH,BSTAR,MEAN_MOTION_DOT,MEAN_MOTION_DDOT
GEOSCAN 3 (RS92S3),2025-155T,2026-07-11T22:50:11.268384,15.36234653,.00086437,97.4542,163.1334,95.7669,264.4560,0,U,64893,999,8465,.31716229E-3,.11135E-3,0
INNOSAT 3 (RS92S0),2025-155U,2026-07-11T22:16:54.030432,15.45646358,.000832,97.4486,165.0508,98.1441,262.0752,0,U,64894,999,8478,.53866853E-3,.25953E-3,0
KNACKSAT-2,1998-067XZ,2026-07-11T08:33:41.694048,15.62129323,.00081939,51.6254,172.7064,314.9456,45.0873,0,U,67683,999,2405,.40006392E-3,.35473E-3,0
