GEOSCAN 3 (RS92S3)      
1 64893U 25155T   26192.95151931  .00011135  00000+0  31716-3 0  9993
2 64893  97.4542 163.1334 0008643  95.7669 264.4560 15.36234653 84655
INNOSAT 3 (RS92S0)      
1 64894U 25155U   26192.92840313  .00025953  00000+0  53867-3 0  9994
2 64894  97.4486 165.0508 0008320  98.1441 262.0752 15.45646358 84784
KNACKSAT-2              
1 67683U 98067XZ  26192.35673257  .00035473  00000+0  40006-3 0  9992
2 67683  51.6254 172.7064 0008193 314.9456  45.0873 15.62129323 24057
